start=new Date('2022-10-08T00:00:00.000Z').valueOf();
sats=[{"PERIOD":"92.910","SEMIMAJOR_AXIS":"6795.195","EPHEMERIS_TYPE":"0","OBJECT_ID":"2022-101AB","CENTER_NAME":"EARTH","NORAD_CAT_ID":"53552","PERIAPSIS":"415.891","INCLINATION":"53.2172","MEAN_MOTION_DOT":"-0.00001932","SITE":"AFETR","ELEMENT_SET_NO":"999","BSTAR":"-0.00002609200000","APOAPSIS":"418.229","MEAN_MOTION_DDOT":"0.0000000000000","EPOCH":"2022-10-07T22:00:00.999936","GP_ID":"214437870","CLASSIFICATION_TYPE":"U","DECAY_DATE":null,"TLE_LINE2":"2 53552  53.2172 273.0699 0001720  68.7573 192.8904 15.49886374  1306","OBJECT_TYPE":"PAYLOAD","MEAN_ANOMALY":"192.8904","TLE_LINE1":"1 53552U 22101AB  22280.91667824 -.00001932  00000-0 -26092-4 0  9993","REF_FRAME":"TEME","MEAN_MOTION":"15.49886374","RCS_SIZE":"LARGE","LAUNCH_DATE":"2022-08-19","COUNTRY_CODE":"US","ARG_OF_PERICENTER":"68.7573","OBJECT_NAME":"STARLINK-4495","MEAN_ELEMENT_THEORY":"SGP4","ECCENTRICITY":"0.00017200","TIME_SYSTEM":"UTC","REV_AT_EPOCH":"130","RA_OF_ASC_NODE":"273.0699","FILE":"3595773"},{"MEAN_MOTION_DOT":"-0.00029064","INCLINATION":"53.2155","NORAD_CAT_ID":"53553","PERIAPSIS":"416.229","ELEMENT_SET_NO":"999","BSTAR":"-0.00050611000000","SITE":"AFETR","APOAPSIS":"417.930","MEAN_MOTION_DDOT":"0.0000000000000","DECAY_DATE":null,"CLASSIFICATION_TYPE":"U","GP_ID":"214438854","EPOCH":"2022-10-07T22:00:00.999936","PERIOD":"92.910","EPHEMERIS_TYPE":"0","OBJECT_ID":"2022-101AC","SEMIMAJOR_AXIS":"6795.215","CENTER_NAME":"EARTH","RCS_SIZE":"LARGE","MEAN_MOTION":"15.49879719","REF_FRAME":"TEME","LAUNCH_DATE":"2022-08-19","MEAN_ELEMENT_THEORY":"SGP4","OBJECT_NAME":"STARLINK-4501","COUNTRY_CODE":"US","ARG_OF_PERICENTER":"68.6689","FILE":"3595773","RA_OF_ASC_NODE":"273.0471","REV_AT_EPOCH":"130","TIME_SYSTEM":"UTC","ECCENTRICITY":"0.00012520","TLE_LINE2":"2 53553  53.2155 273.0471 0001252  68.6689 191.4535 15.49879719  1303","OBJECT_TYPE":"PAYLOAD","TLE_LINE1":"1 53553U 22101AC  22280.91667824 -.00029064  00000-0 -50611-3 0  9993","MEAN_ANOMALY":"191.4535"},{"TLE_LINE1":"1 53554U 22101AD  22280.91667824 -.00017884  00000-0 -30746-3 0  9998","MEAN_ANOMALY":"191.9262","OBJECT_TYPE":"PAYLOAD","TLE_LINE2":"2 53554  53.2156 273.0858 0001443  71.4542 191.9262 15.49921678  1300","FILE":"3595773","RA_OF_ASC_NODE":"273.0858","REV_AT_EPOCH":"130","TIME_SYSTEM":"UTC","ECCENTRICITY":"0.00014430","MEAN_ELEMENT_THEORY":"SGP4","OBJECT_NAME":"STARLINK-4506","ARG_OF_PERICENTER":"71.4542","COUNTRY_CODE":"US","LAUNCH_DATE":"2022-08-19","RCS_SIZE":"LARGE","MEAN_MOTION":"15.49921678","REF_FRAME":"TEME","CENTER_NAME":"EARTH","EPHEMERIS_TYPE":"0","OBJECT_ID":"2022-101AD","SEMIMAJOR_AXIS":"6795.092","PERIOD":"92.908","CLASSIFICATION_TYPE":"U","DECAY_DATE":null,"EPOCH":"2022-10-07T22:00:00.999936","GP_ID":"214438035","APOAPSIS":"417.938","MEAN_MOTION_DDOT":"0.0000000000000","ELEMENT_SET_NO":"999","BSTAR":"-0.00030746000000","SITE":"AFETR","MEAN_MOTION_DOT":"-0.00017884","INCLINATION":"53.2156","NORAD_CAT_ID":"53554","PERIAPSIS":"415.976"},{"OBJECT_TYPE":"PAYLOAD","TLE_LINE2":"2 53555  53.2154 273.0479 0001022  64.1576 196.7685 15.49840041  1303","MEAN_ANOMALY":"196.7685","TLE_LINE1":"1 53555U 22101AE  22280.91667824  .00068049  00000-0  11984-2 0  9998","LAUNCH_DATE":"2022-08-19","REF_FRAME":"TEME","MEAN_MOTION":"15.49840041","RCS_SIZE":"LARGE","ECCENTRICITY":"0.00010220","TIME_SYSTEM":"UTC","REV_AT_EPOCH":"130","RA_OF_ASC_NODE":"273.0479","FILE":"3595773","COUNTRY_CODE":"US","ARG_OF_PERICENTER":"64.1576","OBJECT_NAME":"STARLINK-4504","MEAN_ELEMENT_THEORY":"SGP4","SEMIMAJOR_AXIS":"6795.331","OBJECT_ID":"2022-101AE","EPHEMERIS_TYPE":"0","PERIOD":"92.913","CENTER_NAME":"EARTH","SITE":"AFETR","ELEMENT_SET_NO":"999","BSTAR":"0.00119840000000","NORAD_CAT_ID":"53555","PERIAPSIS":"416.501","INCLINATION":"53.2154","MEAN_MOTION_DOT":"0.00068049","EPOCH":"2022-10-07T22:00:00.999936","GP_ID":"214439019","CLASSIFICATION_TYPE":"U","DECAY_DATE":null,"APOAPSIS":"417.890","MEAN_MOTION_DDOT":"0.0000000000000"},{"OBJECT_TYPE":"PAYLOAD","TLE_LINE2":"2 53556  53.2159 273.1097 0001185  57.0434 208.1359 15.49864755  1304","TLE_LINE1":"1 53556U 22101AF  22280.91667824  .00002433  00000-0  50847-4 0  9997","MEAN_ANOMALY":"208.1359","LAUNCH_DATE":"2022-08-19","MEAN_MOTION":"15.49864755","REF_FRAME":"TEME","RCS_SIZE":"LARGE","TIME_SYSTEM":"UTC","ECCENTRICITY":"0.00011850","FILE":"3595773","REV_AT_EPOCH":"130","RA_OF_ASC_NODE":"273.1097","ARG_OF_PERICENTER":"57.0434","COUNTRY_CODE":"US","MEAN_ELEMENT_THEORY":"SGP4","OBJECT_NAME":"STARLINK-4505","SEMIMAJOR_AXIS":"6795.258","OBJECT_ID":"2022-101AF","EPHEMERIS_TYPE":"0","PERIOD":"92.911","CENTER_NAME":"EARTH","BSTAR":"0.00005084700000","ELEMENT_SET_NO":"999","SITE":"AFETR","INCLINATION":"53.2159","NORAD_CAT_ID":"53556","PERIAPSIS":"416.318","MEAN_MOTION_DOT":"0.00002433","GP_ID":"214438289","EPOCH":"2022-10-07T22:00:00.999936","CLASSIFICATION_TYPE":"U","DECAY_DATE":null,"APOAPSIS":"417.929","MEAN_MOTION_DDOT":"0.0000000000000"},{"APOAPSIS":"417.981","MEAN_MOTION_DDOT":"0.0000000000000","CLASSIFICATION_TYPE":"U","DECAY_DATE":null,"GP_ID":"214438617","EPOCH":"2022-10-07T22:00:00.999936","MEAN_MOTION_DOT":"0.00062008","INCLINATION":"53.2158","PERIAPSIS":"416.266","NORAD_CAT_ID":"53557","BSTAR":"0.00109260000000","ELEMENT_SET_NO":"999","SITE":"AFETR","CENTER_NAME":"EARTH","PERIOD":"92.911","EPHEMERIS_TYPE":"0","OBJECT_ID":"2022-101AG","SEMIMAJOR_AXIS":"6795.258","MEAN_ELEMENT_THEORY":"SGP4","OBJECT_NAME":"STARLINK-4502","COUNTRY_CODE":"US","ARG_OF_PERICENTER":"60.7476","FILE":"3595773","REV_AT_EPOCH":"130","RA_OF_ASC_NODE":"273.0721","TIME_SYSTEM":"UTC","ECCENTRICITY":"0.00012620","RCS_SIZE":"LARGE","MEAN_MOTION":"15.49864773","REF_FRAME":"TEME","LAUNCH_DATE":"2022-08-19","TLE_LINE1":"1 53557U 22101AG  22280.91667824  .00062008  00000-0  10926-2 0  9994","MEAN_ANOMALY":"201.8859","TLE_LINE2":"2 53557  53.2158 273.0721 0001262  60.7476 201.8859 15.49864773  1305","OBJECT_TYPE":"PAYLOAD"},{"TLE_LINE1":"1 53558U 22101AH  22280.91667824  .00037424  00000-0  27019-3 0  9991","MEAN_ANOMALY":"246.0213","OBJECT_TYPE":"PAYLOAD","TLE_LINE2":"2 53558  53.2128 271.6065 0003693   0.6748 246.0213 15.73166990  1301","TIME_SYSTEM":"UTC","ECCENTRICITY":"0.00036930","FILE":"3595773","REV_AT_EPOCH":"130","RA_OF_ASC_NODE":"271.6065","ARG_OF_PERICENTER":"0.6748","COUNTRY_CODE":"US","MEAN_ELEMENT_THEORY":"SGP4","OBJECT_NAME":"STARLINK-4494","LAUNCH_DATE":"2022-08-19","MEAN_MOTION":"15.73166990","REF_FRAME":"TEME","RCS_SIZE":"LARGE","CENTER_NAME":"EARTH","SEMIMAJOR_AXIS":"6727.989","OBJECT_ID":"2022-101AH","EPHEMERIS_TYPE":"0","PERIOD":"91.535","GP_ID":"214438453","EPOCH":"2022-10-07T22:00:00.999936","DECAY_DATE":null,"CLASSIFICATION_TYPE":"U","MEAN_MOTION_DDOT":"0.0000000000000","APOAPSIS":"352.339","BSTAR":"0.00027019000000","ELEMENT_SET_NO":"999","SITE":"AFETR","INCLINATION":"53.2128","NORAD_CAT_ID":"53558","PERIAPSIS":"347.370","MEAN_MOTION_DOT":"0.00037424"},{"TIME_SYSTEM":"UTC","ECCENTRICITY":"0.00014080","FILE":"3595773","REV_AT_EPOCH":"130","RA_OF_ASC_NODE":"273.0976","ARG_OF_PERICENTER":"69.9945","COUNTRY_CODE":"US","MEAN_ELEMENT_THEORY":"SGP4","OBJECT_NAME":"STARLINK-4508","LAUNCH_DATE":"2022-08-19","MEAN_MOTION":"15.49925385","REF_FRAME":"TEME","RCS_SIZE":"LARGE","TLE_LINE1":"1 53559U 22101AJ  22280.91667824 -.00038613  00000-0 -67474-3 0  9994","MEAN_ANOMALY":"194.2311","OBJECT_TYPE":"PAYLOAD","TLE_LINE2":"2 53559  53.2161 273.0976 0001408  69.9945 194.2311 15.49925385  1302","GP_ID":"214438781","EPOCH":"2022-10-07T22:00:00.999936","CLASSIFICATION_TYPE":"U","DECAY_DATE":null,"APOAPSIS":"417.903","MEAN_MOTION_DDOT":"0.0000000000000","ELEMENT_SET_NO":"999","BSTAR":"-0.00067474000000","SITE":"AFETR","INCLINATION":"53.2161","NORAD_CAT_ID":"53559","PERIAPSIS":"415.989","MEAN_MOTION_DOT":"-0.00038613","CENTER_NAME":"EARTH","SEMIMAJOR_AXIS":"6795.081","EPHEMERIS_TYPE":"0","OBJECT_ID":"2022-101AJ","PERIOD":"92.908"},{"ARG_OF_PERICENTER":"11.1837","COUNTRY_CODE":"US","MEAN_ELEMENT_THEORY":"SGP4","OBJECT_NAME":"STARLINK-4564","TIME_SYSTEM":"UTC","ECCENTRICITY":"0.00034750","FILE":"3595773","REV_AT_EPOCH":"130","RA_OF_ASC_NODE":"271.6033","MEAN_MOTION":"15.73161088","REF_FRAME":"TEME","RCS_SIZE":"LARGE","LAUNCH_DATE":"2022-08-19","TLE_LINE1":"1 53560U 22101AK  22280.91667824  .00131167  00000-0  92582-3 0  9990","MEAN_ANOMALY":"236.4258","TLE_LINE2":"2 53560  53.2122 271.6033 0003475  11.1837 236.4258 15.73161088  1302","OBJECT_TYPE":"PAYLOAD","MEAN_MOTION_DDOT":"0.0000000000000","APOAPSIS":"352.209","GP_ID":"214437871","EPOCH":"2022-10-07T22:00:00.999936","DECAY_DATE":null,"CLASSIFICATION_TYPE":"U","INCLINATION":"53.2122","PERIAPSIS":"347.533","NORAD_CAT_ID":"53560","MEAN_MOTION_DOT":"0.00131167","ELEMENT_SET_NO":"999","BSTAR":"0.00092582000000","SITE":"AFETR","CENTER_NAME":"EARTH","PERIOD":"91.535","SEMIMAJOR_AXIS":"6728.006","OBJECT_ID":"2022-101AK","EPHEMERIS_TYPE":"0"},{"CENTER_NAME":"EARTH","PERIOD":"92.907","EPHEMERIS_TYPE":"0","OBJECT_ID":"2022-101AL","SEMIMAJOR_AXIS":"6795.065","APOAPSIS":"417.927","MEAN_MOTION_DDOT":"0.0000000000000","CLASSIFICATION_TYPE":"U","DECAY_DATE":null,"EPOCH":"2022-10-07T22:00:00.999936","GP_ID":"214438855","MEAN_MOTION_DOT":"-0.00029461","INCLINATION":"53.2160","NORAD_CAT_ID":"53561","PERIAPSIS":"415.932","BSTAR":"-0.00051221000000","ELEMENT_SET_NO":"999","SITE":"AFETR","TLE_LINE1":"1 53561U 22101AL  22280.91667824 -.00029461  00000-0 -51221-3 0  9991","MEAN_ANOMALY":"190.1337","TLE_LINE2":"2 53561  53.2160 273.1197 0001468  75.7473 190.1337 15.49931002  1303","OBJECT_TYPE":"PAYLOAD","MEAN_ELEMENT_THEORY":"SGP4","OBJECT_NAME":"STARLINK-4563","ARG_OF_PERICENTER":"75.7473","COUNTRY_CODE":"US","FILE":"3595773","REV_AT_EPOCH":"130","RA_OF_ASC_NODE":"273.1197","TIME_SYSTEM":"UTC","ECCENTRICITY":"0.00014680","RCS_SIZE":"LARGE","MEAN_MOTION":"15.49931002","REF_FRAME":"TEME","LAUNCH_DATE":"2022-08-19"}];
